{
  "type": "FeatureCollection",
  "features": [
    {
      "type": "Feature",
      "geometry": {
        "type": "Point",
        "coordinates": [
          11.421919,
          48.1179807
        ]
      },
      "properties": {
        "id": 269510209,
        "type": "node",
        "name": "Wolfartklinik",
        "category": "hospitals",
        "addr:city": "Gräfelfing",
        "addr:country": "DE",
        "addr:housenumber": "7",
        "addr:postcode": "82166",
        "addr:street": "Waldstraße",
        "amenity": "hospital",
        "email": "info@wolfartklinik.de",
        "emergency": "yes",
        "healthcare": "hospital",
        "phone": "+49 89 8587-0",
        "website": "https://wolfartklinik.de/",
        "wheelchair": "yes"
      }
    },
    {
      "type": "Feature",
      "geometry": {
        "type": "Point",
        "coordinates": [
          11.5960485,
          48.1515148
        ]
      },
      "properties": {
        "id": 291898706,
        "type": "node",
        "name": "Frauenklinik Dr. Geisenhofer",
        "category": "hospitals",
        "addr:city": "München",
        "addr:country": "DE",
        "addr:housenumber": "6",
        "addr:postcode": "80538",
        "addr:street": "Hirschauer Straße",
        "amenity": "hospital",
        "beds": "82",
        "emergency": "no",
        "healthcare": "hospital",
        "healthcare:speciality": "gynaecology",
        "name:en": "Dr. Geisenhofer Women's Clinic",
        "opening_hours:visitors": "09:00-17:00",
        "operator": "Frauenklinik Dr. Geisenhofer GmbH",
        "operator:type": "private",
        "phone": "+49 89 38310",
        "website": "https://geisenhoferklinik.de/",
        "wheelchair": "no"
      }
    },
    {
      "type": "Feature",
      "geometry": {
        "type": "Point",
        "coordinates": [
          11.5650239,
          48.1347002
        ]
      },
      "properties": {
        "id": 332617267,
        "type": "node",
        "name": "ISAR Klinikum",
        "category": "hospitals",
        "addr:city": "München",
        "addr:country": "DE",
        "addr:housenumber": "24",
        "addr:postcode": "80331",
        "addr:street": "Sonnenstraße",
        "amenity": "hospital",
        "email": "info@isarklinikum.de",
        "emergency": "yes",
        "fax": "+49 89 149903-1990",
        "healthcare": "hospital",
        "operator": "Isar Kliniken GmbH",
        "phone": "+49 89 149903-0",
        "website": "https://www.isarklinikum.de",
        "wheelchair": "yes",
        "wikidata": "Q22674589"
      }
    },
    {
      "type": "Feature",
      "geometry": {
        "type": "Point",
        "coordinates": [
          11.618485,
          48.1505955
        ]
      },
      "properties": {
        "id": 1285286391,
        "type": "node",
        "name": "Arabella-Klinik",
        "category": "hospitals",
        "addr:city": "München",
        "addr:country": "DE",
        "addr:housenumber": "5",
        "addr:postcode": "81925",
        "addr:street": "Arabellastraße",
        "amenity": "hospital",
        "beds": "60",
        "emergency": "no",
        "healthcare": "hospital",
        "healthcare:speciality": "anaesthetics;ophthalmology;surgery;trauma;plastic_surgery;otolaryngology;dental_oral_maxillo_facial_surgery",
        "level": "19",
        "operator": "Arabella Klinik GmbH",
        "operator:type": "private",
        "phone": "+49 89 92 20 92 0",
        "website": "https://arabellaklinik.de/",
        "wheelchair": "limited",
        "wikidata": "Q106291752",
        "wikipedia": "de:Arabella Klinik"
      }
    },
    {
      "type": "Feature",
      "geometry": {
        "type": "Point",
        "coordinates": [
          11.5872598,
          48.2018974
        ]
      },
      "properties": {
        "id": 1598962239,
        "type": "node",
        "name": "Klinik mednord",
        "category": "hospitals",
        "amenity": "hospital",
        "emergency": "no",
        "healthcare": "hospital",
        "operator": "Klinik mednord Dr. Pfützenreuter",
        "website": "https://klinik-mednord.de/"
      }
    },
    {
      "type": "Feature",
      "geometry": {
        "type": "Point",
        "coordinates": [
          11.5872518,
          48.2018439
        ]
      },
      "properties": {
        "id": 1598964034,
        "type": "node",
        "name": "Belegklinikfür Neurochirurgie, plastisch-ästhetische Chirurgie,Chirurgie und Orthopädie",
        "category": "hospitals",
        "amenity": "hospital",
        "emergency": "no",
        "healthcare": "hospital",
        "name:en": "Clinic for Neurosurgery, Plastic and Aesthetic Surgery, Surgery, and Orthopedics",
        "operator": "Klinik mednord Dr. Pfützenreuter"
      }
    },
    {
      "type": "Feature",
      "geometry": {
        "type": "Point",
        "coordinates": [
          11.5493435,
          48.1266722
        ]
      },
      "properties": {
        "id": 5110996243,
        "type": "node",
        "name": "Maria-Theresia-Klinik",
        "category": "hospitals",
        "addr:city": "München",
        "addr:country": "DE",
        "addr:housenumber": "46",
        "addr:postcode": "80336",
        "addr:street": "Bavariaring",
        "amenity": "hospital",
        "beds": "52",
        "email": "info@maria-theresia-klinik.de",
        "healthcare": "hospital",
        "healthcare:speciality": "internal;surgery",
        "official_name": "Maria-Theresia-Klinik - Fachklinik für Chirurgie und Innere Medizin",
        "operator": "Kongregation der Barmherzigen Schwestern vom hl. Vinzenz von Paul",
        "operator:type": "religious",
        "phone": "+49 89 7207-1",
        "website": "https://www.maria-theresia-klinik.de/",
        "wheelchair": "no",
        "wikidata": "Q98644173"
      }
    },
    {
      "type": "Feature",
      "geometry": {
        "type": "Point",
        "coordinates": [
          11.5607289,
          48.1315346
        ]
      },
      "properties": {
        "id": 8056138,
        "type": "way",
        "name": "LMU Klinikum Campus Innenstadt",
        "category": "hospitals",
        "addr:city": "München",
        "addr:housenumber": "1",
        "addr:postcode": "80336",
        "addr:street": "Ziemssenstraße",
        "alt_name": "Portalklinik",
        "amenity": "hospital",
        "emergency": "yes",
        "healthcare": "hospital",
        "operator": "Ludwig-Maximilians-Universität",
        "operator:short": "LMU",
        "operator:type": "university",
        "operator:wikidata": "Q55044",
        "operator:wikipedia": "de:Ludwig-Maximilians-Universität München",
        "phone": "+49 89 44000"
      }
    },
    {
      "type": "Feature",
      "geometry": {
        "type": "Point",
        "coordinates": [
          11.5642559,
          48.1289836
        ]
      },
      "properties": {
        "id": 8056619,
        "type": "way",
        "name": "München Klinik Thalkirchner Straße",
        "category": "hospitals",
        "addr:city": "München",
        "addr:country": "DE",
        "addr:housenumber": "48",
        "addr:postcode": "80337",
        "addr:street": "Thalkirchner Straße",
        "amenity": "hospital",
        "barrier": "wall",
        "emergency": "no",
        "fax": "+49 89 51476403",
        "healthcare": "hospital",
        "healthcare:speciality": "dermatology;allergology",
        "operator": "Städtisches Klinikum München GmbH",
        "phone": "+49 89 1476011",
        "website": "https://www.muenchen-klinik.de/krankenhaus/thalkirchner-strasse/",
        "wheelchair": "limited",
        "wikidata": "Q1687174"
      }
    },
    {
      "type": "Feature",
      "geometry": {
        "type": "Point",
        "coordinates": [
          11.4541663,
          48.1443992
        ]
      },
      "properties": {
        "id": 8116617,
        "type": "way",
        "name": "HELIOS Klinikum München West",
        "category": "hospitals",
        "amenity": "hospital",
        "emergency": "yes",
        "healthcare": "hospital",
        "operator": "Helios Kliniken",
        "operator:type": "private",
        "operator:wikidata": "Q1254151",
        "operator:wikipedia": "de:Helios Kliniken",
        "phone": "+49 89 8892 0",
        "website": "https://www.helios-gesundheit.de/standorte-angebote/kliniken/muenchen-west/",
        "wheelchair": "yes",
        "wikidata": "Q1774641"
      }
    },
    {
      "type": "Feature",
      "geometry": {
        "type": "Point",
        "coordinates": [
          11.5050996,
          48.1657409
        ]
      },
      "properties": {
        "id": 8887372,
        "type": "way",
        "name": "Klinikum Dritter Orden",
        "category": "hospitals",
        "addr:city": "München",
        "addr:country": "DE",
        "addr:housenumber": "44",
        "addr:postcode": "80638",
        "addr:street": "Menzinger Straße",
        "amenity": "hospital",
        "beds": "574",
        "email": "info@dritter-orden.de",
        "emergency": "yes",
        "healthcare": "hospital",
        "official_name": "Klinikum Dritter Orden München-Nymphenburg",
        "operator": "Ordenskliniken München-Passau gGmbH",
        "phone": "+49 89 1795-0",
        "toilets:wheelchair": "yes",
        "website": "https://www.dritter-orden.de/",
        "wheelchair": "yes",
        "wikidata": "Q1774605"
      }
    },
    {
      "type": "Feature",
      "geometry": {
        "type": "Point",
        "coordinates": [
          11.656037,
          48.0944452
        ]
      },
      "properties": {
        "id": 9058187,
        "type": "way",
        "name": "München Klinik Neuperlach",
        "category": "hospitals",
        "addr:city": "München",
        "addr:country": "DE",
        "addr:housenumber": "51",
        "addr:postcode": "81737",
        "addr:street": "Oskar-Maria-Graf-Ring",
        "amenity": "hospital",
        "beds": "500",
        "check_date": "2024-05-05",
        "emergency": "yes",
        "healthcare": "hospital",
        "name:en": "Munich Clinic Neuperlach",
        "operator": "München Klinik gGmbH",
        "phone": "+49 89 6794-0",
        "website": "https://www.muenchen-klinik.de/krankenhaus/neuperlach/",
        "wheelchair": "yes",
        "wikidata": "Q1774646"
      }
    },
    {
      "type": "Feature",
      "geometry": {
        "type": "Point",
        "coordinates": [
          11.5574673,
          48.0856519
        ]
      },
      "properties": {
        "id": 13792215,
        "type": "way",
        "name": "München Klinik Harlaching",
        "category": "hospitals",
        "addr:city": "München",
        "addr:country": "DE",
        "addr:housenumber": "2",
        "addr:postcode": "81545",
        "addr:street": "Sanatoriumsplatz",
        "amenity": "hospital",
        "beds": "673",
        "contact:email": "info.kh@muenchen-klinik.de",
        "contact:facebook": "https://www.facebook.com/muenchenklinik",
        "contact:fax": "+49 89 6210 2442",
        "contact:instagram": "https://www.instagram.com/muenchenklinik",
        "contact:phone": "+49 89 6210 0",
        "contact:twitter": "https://twitter.com/muenchenklinik",
        "contact:website": "https://www.muenchen-klinik.de/krankenhaus/harlaching/",
        "contact:youtube": "https://www.youtube.com/user/KlinikumMuenchen",
        "emergency": "yes",
        "healthcare": "hospital",
        "healthcare:speciality": "gastroenterology;cardiology;gynaecology;nephrology;pulmonology;paediatrics;surgery;oncology;physiatry;orthopaedics;neurology;psychiatry;emergency;trauma",
        "name:en": "Munich Clinic Harlaching",
        "old_name": "Städtisches Klinikum Harlaching",
        "operator": "München Klinik gGmbH",
        "short_name": "MüK",
        "start_date": "1896-09-15",
        "wheelchair": "yes",
        "wikidata": "Q1774619",
        "wikipedia": "de:München Klinik Harlaching"
      }
    },
    {
      "type": "Feature",
      "geometry": {
        "type": "Point",
        "coordinates": [
          11.4694572,
          48.1105025
        ]
      },
      "properties": {
        "id": 17012780,
        "type": "way",
        "name": "Klinikum Großhadern",
        "category": "hospitals",
        "addr:city": "München",
        "addr:country": "DE",
        "addr:housenumber": "15",
        "addr:postcode": "81377",
        "addr:street": "Marchioninistraße",
        "alt_name": "Klinikum München Großhadern",
        "amenity": "hospital",
        "beds": "1964",
        "email": "info@klinikum.uni-muenchen.de",
        "emergency": "yes",
        "healthcare": "hospital",
        "name:en": "LMU Klinikum – Campus Großhadern",
        "official_name": "Klinikum der Universität München - Campus Großhadern",
        "phone": "+49 89 4400-0",
        "toilets:wheelchair": "yes",
        "website": "https://www.lmu-klinikum.de/das-klinikum/standorte/zukunft-grosshadern/c57c2b5efc57b0df",
        "wheelchair": "yes",
        "wikidata": "Q598814",
        "wikipedia": "en:Klinikum Großhadern"
      }
    },
    {
      "type": "Feature",
      "geometry": {
        "type": "Point",
        "coordinates": [
          11.6015429,
          48.1378637
        ]
      },
      "properties": {
        "id": 23684048,
        "type": "way",
        "name": "Klinikum rechts der Isar",
        "category": "hospitals",
        "addr:city": "München",
        "addr:country": "DE",
        "addr:housenumber": "22",
        "addr:street": "Ismaninger Straße",
        "amenity": "hospital",
        "beds": "1161",
        "emergency": "yes",
        "healthcare": "hospital",
        "name:en": "Rechts der Isar Hospital",
        "name:zh": "议会大厦",
        "operator": "Technische Universität München",
        "phone": "+49 89 4140-0",
        "start_date": "1834",
        "toilets:wheelchair": "yes",
        "website": "https://www.mri.tum.de/",
        "wheelchair": "yes",
        "wikidata": "Q883813",
        "wikipedia": "de:Klinikum rechts der Isar"
      }
    },
    {
      "type": "Feature",
      "geometry": {
        "type": "Point",
        "coordinates": [
          11.5827978,
          48.1136834
        ]
      },
      "properties": {
        "id": 29327859,
        "type": "way",
        "name": "kbo-Heckscher-Klinikum",
        "category": "hospitals",
        "addr:city": "München",
        "addr:housenumber": "28",
        "addr:postcode": "81539",
        "addr:street": "Deisenhofener Straße",
        "amenity": "hospital",
        "building": "yes",
        "emergency": "no",
        "fax": "+49 89 9999-1111",
        "healthcare": "hospital",
        "healthcare:speciality": "child_psychiatry",
        "operator": "Kliniken des Bezirks Oberbayern - kbo-Heckscher-Klinikum gGmbH",
        "operator:type": "public",
        "phone": "+49 89 9999-0",
        "website": "https://kbo-heckscher-klinikum.de/",
        "wheelchair": "yes"
      }
    },
    {
      "type": "Feature",
      "geometry": {
        "type": "Point",
        "coordinates": [
          11.5784319,
          48.1719359
        ]
      },
      "properties": {
        "id": 30683541,
        "type": "way",
        "name": "München Klinik Schwabing",
        "category": "hospitals",
        "addr:city": "München",
        "addr:housenumber": "1",
        "addr:postcode": "80804",
        "addr:street": "Kölner Platz",
        "amenity": "hospital",
        "beds": "650",
        "emergency": "yes",
        "healthcare": "hospital",
        "healthcare:speciality": "gynaecology;paediatrics;paediatric_surgery;otolaryngology;cardiology;orthopaedics;neurosurgery;surgery;thoracic_surgery;endocrinology;physiatry",
        "name:en": "Munich Clinic Schwabing",
        "operator": "München Klinik gGmbH",
        "website": "https://www.muenchen-klinik.de/krankenhaus/schwabing/",
        "wheelchair": "yes",
        "wikidata": "Q1170136",
        "wikipedia": "de:München Klinik Schwabing"
      }
    },
    {
      "type": "Feature",
      "geometry": {
        "type": "Point",
        "coordinates": [
          11.6406282,
          48.0822013
        ]
      },
      "properties": {
        "id": 41956564,
        "type": "way",
        "name": "Gebäude 34: Sanitätszentrum Neubiberg",
        "category": "hospitals",
        "addr:city": "Neubiberg",
        "addr:country": "DE",
        "addr:housename": "Gebäude 34",
        "addr:housenumber": "134",
        "addr:postcode": "85579",
        "addr:street": "Werner-Heisenberg-Weg",
        "amenity": "hospital",
        "building": "yes",
        "healthcare": "hospital"
      }
    },
    {
      "type": "Feature",
      "geometry": {
        "type": "Point",
        "coordinates": [
          11.6293096,
          48.102096
        ]
      },
      "properties": {
        "id": 69564042,
        "type": "way",
        "name": "Helios Klinik München Perlach",
        "category": "hospitals",
        "addr:city": "München",
        "addr:housenumber": "44",
        "addr:postcode": "81737",
        "addr:street": "Schmidbauerstraße",
        "amenity": "hospital",
        "beds": "150",
        "email": "info.muenchen-perlach@helios-kliniken.de",
        "emergency": "yes",
        "fax": "+49 89 67802-449",
        "healthcare": "hospital",
        "healthcare:speciality": "internal;gastroenterology;geriatrics;surgery;trauma;anaesthetics;intensive;radiology",
        "name:en": "Helios Hospital München Perlach",
        "operator": "Helios Kliniken GmbH",
        "operator:type": "private",
        "operator:wikidata": "Q1254151",
        "operator:wikipedia": "de:Helios Kliniken",
        "phone": "+49 89 67802-1",
        "toilets:wheelchair": "yes",
        "website": "https://www.helios-gesundheit.de/standorte-angebote/kliniken/muenchen-perlach/",
        "wheelchair": "yes"
      }
    },
    {
      "type": "Feature",
      "geometry": {
        "type": "Point",
        "coordinates": [
          11.4188713,
          48.1271027
        ]
      },
      "properties": {
        "id": 98318219,
        "type": "way",
        "name": "Würmtalklinik",
        "category": "hospitals",
        "amenity": "hospital",
        "healthcare": "hospital",
        "operator": "Deutscher Orden",
        "website": "https://www.suchtklinik-muenchen.de/"
      }
    },
    {
      "type": "Feature",
      "geometry": {
        "type": "Point",
        "coordinates": [
          11.5764439,
          48.1738768
        ]
      },
      "properties": {
        "id": 122727555,
        "type": "way",
        "name": "Klinik des Max-Planck-Instituts für Psychiatrie",
        "category": "hospitals",
        "addr:city": "München",
        "addr:country": "DE",
        "addr:housenumber": "10",
        "addr:postcode": "80804",
        "addr:street": "Kraepelinstraße",
        "amenity": "hospital",
        "building:part": "yes",
        "healthcare": "hospital",
        "healthcare:speciality": "physiatry",
        "name:en": "Max Planck Institute of Psychiatry",
        "name:ru": "Институт психиатрии имени Макса Планки",
        "name:uk": "Інститут психіатрії імені Макса Планки",
        "source": "Bing"
      }
    },
    {
      "type": "Feature",
      "geometry": {
        "type": "Point",
        "coordinates": [
          11.6062594,
          48.1438322
        ]
      },
      "properties": {
        "id": 127460320,
        "type": "way",
        "name": "HNO-Klinik Bogenhausen Dr. Gaertner",
        "category": "hospitals",
        "amenity": "hospital",
        "beds": "20",
        "check_date": "2025-08-14",
        "check_date:opening_hours": "2024-06-30",
        "emergency": "no",
        "fax": "+49 89 998902-24",
        "healthcare": "hospital",
        "healthcare:speciality": "otolaryngology",
        "name:en": "Otorhinolaryngology clinic Bogenhausen Dr. Gaertner",
        "opening_hours:signed": "no",
        "operator:type": "private",
        "phone": "+49 89 998902-0",
        "website": "https://gaertnerklinik.de/",
        "wikidata": "Q23930105"
      }
    },
    {
      "type": "Feature",
      "geometry": {
        "type": "Point",
        "coordinates": [
          11.4576537,
          48.14649
        ]
      },
      "properties": {
        "id": 129210094,
        "type": "way",
        "name": "Dr. Lubos Kliniken Pasing",
        "category": "hospitals",
        "addr:city": "München",
        "addr:country": "DE",
        "addr:housenumber": "2-6",
        "addr:postcode": "81241",
        "addr:street": "Schmiedwegerl",
        "amenity": "hospital",
        "check_date": "2025-10-25",
        "email": "info@lubos-kliniken.de",
        "emergency": "no",
        "healthcare": "hospital",
        "healthcare:speciality": "surgery;gynaecology;urology;anaesthetics",
        "operator": "Dr. Lubos Kliniken Pasing GmbH & Co. KG",
        "operator:type": "private",
        "phone": "+49 89 92794 2100",
        "website": "https://www.lubos-kliniken.de/pasing",
        "wheelchair": "limited",
        "wikidata": "Q101509176",
        "wikimedia_commons": "File:Dr. Lubos Kliniken Pasing Schmiedwegerl 6.jpg",
        "wikipedia": "de:Dr. Lubos Kliniken Pasing"
      }
    },
    {
      "type": "Feature",
      "geometry": {
        "type": "Point",
        "coordinates": [
          11.5348056,
          48.0854315
        ]
      },
      "properties": {
        "id": 162999335,
        "type": "way",
        "name": "Krankenhaus Martha-Maria",
        "category": "hospitals",
        "addr:city": "München",
        "addr:housenumber": "109",
        "addr:postcode": "81479",
        "addr:street": "Wolfratshauser Straße",
        "amenity": "hospital",
        "contact:email": "krankenhaus.muenchen@martha-maria.de",
        "contact:fax": "+49897276203",
        "contact:phone": "+498972760",
        "contact:website": "https://kh-muenchen.martha-maria.de/",
        "emergency": "yes",
        "healthcare": "hospital",
        "operator": "Diakoniewerk Martha-Maria Krankenhaus gGmbH",
        "wikidata": "Q1786538",
        "wikipedia": "de:Krankenhaus Martha Maria (München)"
      }
    },
    {
      "type": "Feature",
      "geometry": {
        "type": "Point",
        "coordinates": [
          11.5497845,
          48.1530641
        ]
      },
      "properties": {
        "id": 174549561,
        "type": "way",
        "name": "TUM Klinikum Deutsches Herzzentrum",
        "category": "hospitals",
        "addr:city": "München",
        "addr:country": "DE",
        "addr:housenumber": "36",
        "addr:postcode": "80636",
        "addr:street": "Lazarettstraße",
        "amenity": "hospital",
        "check_date": "2025-02-19",
        "email": "dhm@dhm.mhn.de",
        "emergency": "yes",
        "healthcare": "hospital",
        "healthcare:speciality": "cardiology",
        "name:en": "TUM University Hospital German Heart Center",
        "phone": "+49 89 1218-0",
        "website": "https://www.deutsches-herzzentrum-muenchen.de/",
        "wheelchair": "yes",
        "wikidata": "Q1205693",
        "wikipedia": "de:Deutsches Herzzentrum München"
      }
    },
    {
      "type": "Feature",
      "geometry": {
        "type": "Point",
        "coordinates": [
          11.5094942,
          48.1565428
        ]
      },
      "properties": {
        "id": 198989981,
        "type": "way",
        "name": "Krankenhaus der Barmherzigen Brüder",
        "category": "hospitals",
        "addr:city": "München",
        "addr:country": "DE",
        "addr:housenumber": "93",
        "addr:postcode": "80639",
        "addr:street": "Romanstraße",
        "amenity": "hospital",
        "beds": "405",
        "check_date": "2024-03-27",
        "email": "info@barmherzige-muenchen.de",
        "emergency": "yes",
        "healthcare": "hospital",
        "name:ar": "مستشفى دكتور بلتس",
        "name:de": "Krankenhaus der Barmherzigen Brüder",
        "operator": "Barmherzige Brüder gemeinnützige Krankenhaus GmbH",
        "phone": "+49 89 1797-0",
        "toilets:wheelchair": "yes",
        "website": "https://www.barmherzige-muenchen.de/",
        "wheelchair": "yes",
        "wikidata": "Q1703255",
        "wikipedia": "de:Krankenhaus Barmherzige Brüder (München)"
      }
    },
    {
      "type": "Feature",
      "geometry": {
        "type": "Point",
        "coordinates": [
          11.5318274,
          48.1539653
        ]
      },
      "properties": {
        "id": 258124384,
        "type": "way",
        "name": "Rotkreuzklinikum München",
        "category": "hospitals",
        "addr:city": "München",
        "addr:country": "DE",
        "addr:housenumber": "7",
        "addr:postcode": "80639",
        "addr:street": "Winthirstraße",
        "amenity": "hospital",
        "check_date": "2024-12-01",
        "email": "rotkreuzklinikum-muenchen@swmbrk.de",
        "emergency": "yes",
        "healthcare": "hospital",
        "phone": "+49 89 13030",
        "website": "https://www.rotkreuzklinikum-muenchen.de/",
        "wheelchair": "yes",
        "wikidata": "Q1805959"
      }
    },
    {
      "type": "Feature",
      "geometry": {
        "type": "Point",
        "coordinates": [
          11.5670694,
          48.1040451
        ]
      },
      "properties": {
        "id": 329675311,
        "type": "way",
        "name": "Schön Klinik München Harlaching",
        "category": "hospitals",
        "addr:city": "München",
        "addr:housenumber": "51",
        "addr:postcode": "81547",
        "addr:street": "Harlachinger Straße",
        "amenity": "hospital",
        "beds": "212",
        "building": "hospital",
        "building:levels": "5",
        "description": "Orthopädische Klinik",
        "emergency": "yes",
        "fax": "+49 89 6211 1111",
        "healthcare": "hospital",
        "healthcare:speciality": "orthopaedics",
        "operator": "Schön Klinik",
        "operator:type": "private",
        "operator:wikidata": "Q2258661",
        "operator:wikipedia": "de:Schön Klinik",
        "phone": "+49 89 62110",
        "start_date": "1913",
        "website": "https://www.schoen-klinik.de/muenchen-harlaching",
        "wheelchair": "yes"
      }
    },
    {
      "type": "Feature",
      "geometry": {
        "type": "Point",
        "coordinates": [
          11.5849963,
          48.1717808
        ]
      },
      "properties": {
        "id": 386791408,
        "type": "way",
        "name": "Schön Klinik München Schwabing",
        "category": "hospitals",
        "addr:city": "München",
        "addr:country": "DE",
        "addr:housenumber": "4",
        "addr:postcode": "80804",
        "addr:street": "Parzivalplatz",
        "alt_name": "Neurologisches Krankenhaus München",
        "amenity": "hospital",
        "beds": "157",
        "check_date": "2024-05-19",
        "contact:email": "info@schoen-kliniken.de",
        "contact:phone": "+49 89 360 870",
        "contact:website": "https://www.schoen-klinik.de/muenchen-schwabing",
        "contact:website:en": "https://www.schoen-clinic.com/",
        "emergency": "no",
        "healthcare": "hospital",
        "healthcare:speciality": "rehabilitation;neurology",
        "name:en": "Schoen Clinic München Schwabing",
        "operator": "Schön Klinik SE",
        "operator:type": "private",
        "operator:wikidata": "Q2258661",
        "operator:wikipedia": "de:Schön Klinik",
        "start_date": "1925",
        "wheelchair": "yes"
      }
    },
    {
      "type": "Feature",
      "geometry": {
        "type": "Point",
        "coordinates": [
          11.4152009,
          48.1087824
        ]
      },
      "properties": {
        "id": 415528251,
        "type": "way",
        "name": "Urologische Klinik München-Planegg",
        "category": "hospitals",
        "addr:city": "Planegg",
        "addr:country": "DE",
        "addr:housenumber": "32",
        "addr:postcode": "82152",
        "addr:street": "Germeringer Straße",
        "amenity": "hospital",
        "check_date": "2024-12-24",
        "email": "info@ukmp.de",
        "healthcare": "hospital",
        "healthcare:speciality": "urology",
        "phone": "+49 89 85693-0",
        "website": "https://www.ukmp.de/",
        "wheelchair": "limited",
        "wheelchair:description": "kein Behinderten-WC;lange Zugangsrampe innen;direkt vor dem Gebäude parken, sonst steile Straßenabfahrt zu bewältigen"
      }
    },
    {
      "type": "Feature",
      "geometry": {
        "type": "Point",
        "coordinates": [
          11.4892654,
          48.1228138
        ]
      },
      "properties": {
        "id": 448145655,
        "type": "way",
        "name": "Klinik Augustinum",
        "category": "hospitals",
        "amenity": "hospital",
        "beds": "140",
        "contact:phone": "+49 89 70970",
        "contact:website": "https://augustinum.de/klinik/",
        "description": "Fachklinik für Innere Medizin. Lehrkrankenhaus der Ludwig-Maximilians-Universität München. Die Schwerpunkte sind Kardiologie, Angiologie, Gastroenterologie, Pneumologie, Nieren-, Hochdruck- und Stoffwechselerkrankungen.",
        "healthcare": "hospital",
        "healthcare:speciality": "cardiology",
        "wikidata": "Q27478876"
      }
    },
    {
      "type": "Feature",
      "geometry": {
        "type": "Point",
        "coordinates": [
          11.5317567,
          48.1613536
        ]
      },
      "properties": {
        "id": 474050250,
        "type": "way",
        "name": "Rotkreuzklinikum München Frauenklinik",
        "category": "hospitals",
        "addr:city": "München",
        "addr:country": "DE",
        "addr:housenumber": "3",
        "addr:postcode": "80637",
        "addr:street": "Taxisstraße",
        "amenity": "hospital",
        "email": "rotkreuzklinikum-muenchen@swmbrk.de",
        "healthcare": "hospital",
        "phone": "+49 89 15706-0",
        "website": "https://rotkreuzklinikum-muenchen.de/",
        "wikidata": "Q125213821"
      }
    },
    {
      "type": "Feature",
      "geometry": {
        "type": "Point",
        "coordinates": [
          11.5477936,
          48.1023929
        ]
      },
      "properties": {
        "id": 946810886,
        "type": "way",
        "name": "Internistisches Klinikum München Süd",
        "category": "hospitals",
        "addr:city": "München",
        "addr:country": "DE",
        "addr:housenumber": "36",
        "addr:postcode": "81379",
        "addr:street": "Am Isarkanal",
        "alt_name": "Herzzentrum an der Isar",
        "amenity": "hospital",
        "beds": "115",
        "healthcare": "hospital",
        "healthcare:speciality": "internal;cardiology",
        "old_name": "Internistische Klinik Dr. Müller",
        "operator": "Internistisches Klinikum München Süd GmbH",
        "phone": "+49 89 724000",
        "website": "https://stadt.muenchen.de/service/info/internistisches-klinikum-munchen-sud/1067506/",
        "wheelchair": "limited"
      }
    },
    {
      "type": "Feature",
      "geometry": {
        "type": "Point",
        "coordinates": [
          11.5484212,
          48.1029182
        ]
      },
      "properties": {
        "id": 946815006,
        "type": "way",
        "name": "Artemed Klinikum München Süd",
        "category": "hospitals",
        "amenity": "hospital",
        "beds": "155",
        "check_date": "2025-06-06",
        "email": "info-akms@artemed.de",
        "emergency": "yes",
        "fax": "+49 89 72440-400",
        "healthcare": "hospital",
        "healthcare:speciality": "anaesthetics;intensive;orthopaedics;trauma;emergency;radiology;surgery;vascular_surgery;cardiac_surgery;gastroenterology",
        "old_name": "Chirurgisches Klinikum München Süd",
        "operator": "Artemed SE",
        "phone": "+49 89 724400",
        "website": "https://www.artemed-muenchen-sued.de/",
        "wheelchair": "yes"
      }
    },
    {
      "type": "Feature",
      "geometry": {
        "type": "Point",
        "coordinates": [
          11.6247718,
          48.1551458
        ]
      },
      "properties": {
        "id": 1026169510,
        "type": "way",
        "name": "München Klinik Bogenhausen",
        "category": "hospitals",
        "addr:city": "München",
        "addr:country": "DE",
        "addr:housenumber": "77",
        "addr:postcode": "81925",
        "addr:street": "Englschalkinger Straße",
        "amenity": "hospital",
        "email": "kmb@kh-bogenhausen.de",
        "healthcare": "hospital",
        "operator": "München Klinik gGmbH",
        "operator:type": "public",
        "phone": "+49 89 9270-0",
        "website": "https://www.muenchen-klinik.de/krankenhaus/bogenhausen/",
        "wikidata": "Q1774595"
      }
    },
    {
      "type": "Feature",
      "geometry": {
        "type": "Point",
        "coordinates": [
          11.5567753,
          48.0798625
        ]
      },
      "properties": {
        "id": 1134658711,
        "type": "way",
        "name": "Klinik Menterschwaige",
        "category": "hospitals",
        "addr:city": "München",
        "addr:country": "DE",
        "addr:housenumber": "203",
        "addr:postcode": "81545",
        "addr:street": "Geiselgasteigstraße",
        "amenity": "hospital",
        "beds": "62",
        "building": "hospital",
        "description": "Fachklinik für Psychiatrie, Psychotherapie und Psychoanalyse",
        "email": "info@klinik-menterschwaige.de",
        "fax": "+49 89 642723 95",
        "healthcare": "hospital",
        "healthcare:speciality": "psychiatry",
        "opening_date": "1979-04-01",
        "operator": "Klinik für Dynamische Psychiatrie München GmbH",
        "operator:type": "private",
        "phone": "+49 89 642723 0",
        "visiting_hours": "Mo-Fr 16:30-20:00; Sa-Su 0:00-20:00",
        "website": "https://www.klinik-menterschwaige.de/"
      }
    },
    {
      "type": "Feature",
      "geometry": {
        "type": "Point",
        "coordinates": [
          11.5548266,
          48.1303175
        ]
      },
      "properties": {
        "id": 1201919908,
        "type": "way",
        "name": "Artemed Fachklinik München",
        "category": "hospitals",
        "addr:city": "München",
        "addr:country": "DE",
        "addr:housenumber": "14a-16",
        "addr:postcode": "80336",
        "addr:street": "Mozartstraße",
        "amenity": "hospital",
        "contact:email": "info-muc@artemed.de",
        "contact:fax": "+49 89 51409167",
        "contact:phone": "+49 89 514090",
        "contact:website": "https://www.artemedmuenchen.de/",
        "healthcare": "hospital",
        "healthcare:speciality": "phlebology",
        "operator": "Artemed-Fachklinik München GmbH & Co. KG"
      }
    },
    {
      "type": "Feature",
      "geometry": {
        "type": "Point",
        "coordinates": [
          11.5564806,
          48.0850004
        ]
      },
      "properties": {
        "id": 1205813455,
        "type": "way",
        "name": "Krankenhaus für Naturheilweisen",
        "category": "hospitals",
        "addr:city": "München",
        "addr:country": "DE",
        "addr:housenumber": "65",
        "addr:street": "Seybothstraße",
        "amenity": "hospital",
        "emergency": "no",
        "healthcare": "hospital",
        "website": "https://www.krankenhaus-naturheilweisen.de/"
      }
    },
    {
      "type": "Feature",
      "geometry": {
        "type": "Point",
        "coordinates": [
          11.525449,
          48.1569669
        ]
      },
      "properties": {
        "id": 1375946558,
        "type": "way",
        "name": "Krankenhaus Neuwittelsbach",
        "category": "hospitals",
        "amenity": "hospital",
        "healthcare": "hospital",
        "healthcare:speciality": "internal;rheumatology",
        "name:en": "Hospital Neuwittelsbach",
        "opening_hours": "Mo-Fr 07:30-16:00",
        "operator": "Barmherzige Schwestern vom heiligen Vinzenz von Paul",
        "phone": "+49 89 1304 0",
        "website": "https://www.krankenhaus-neuwittelsbach.de/",
        "wheelchair": "yes",
        "wikidata": "Q1786541",
        "wikipedia": "de:Krankenhaus Neuwittelsbach"
      }
    },
    {
      "type": "Feature",
      "geometry": {
        "type": "Point",
        "coordinates": [
          11.6312626,
          48.1553013
        ]
      },
      "properties": {
        "id": 1423551888,
        "type": "way",
        "name": "Paracelsus Klinik München",
        "category": "hospitals",
        "amenity": "hospital",
        "email": "muenchen@pk-mx.de",
        "emergency": "no",
        "fax": "+49 89 917756",
        "healthcare": "hospital",
        "healthcare:speciality": "otolaryngology;surgery;maxillofacial_surgery",
        "operator": "Paracelsus-Kliniken Deutschland GmbH & Co. KGaA",
        "operator:type": "private",
        "operator:wikidata": "Q2051237",
        "phone": "+49 89 92005-0",
        "wikidata": "Q64554351"
      }
    },
    {
      "type": "Feature",
      "geometry": {
        "type": "Point",
        "coordinates": [
          11.6145874,
          48.1485542
        ]
      },
      "properties": {
        "id": 1423551898,
        "type": "way",
        "name": "Dr. Lubos Kliniken Bogenhausen",
        "category": "hospitals",
        "addr:city": "München",
        "addr:country": "DE",
        "addr:housenumber": "44",
        "addr:postcode": "81679",
        "addr:street": "Denninger Straße",
        "amenity": "hospital",
        "check_date": "2025-10-25",
        "email": "info@lubos-kliniken.de",
        "emergency": "no",
        "fax": "+49 89 92794 1501",
        "healthcare": "hospital",
        "healthcare:speciality": "surgery;gynaecology;orthopaedics;urology;anaesthetics",
        "operator": "Dr. Lubos Kliniken Bogenhausen GmbH",
        "operator:type": "private",
        "phone": "+49 89 92794 0",
        "ref:vatin": "DE814323213",
        "website": "https://www.lubos-kliniken.de/bogenhausen/",
        "wheelchair": "yes",
        "wikidata": "Q97750632",
        "wikimedia_commons": "File:Krankenhaus – Dr. Lubos Kliniken Bogenhausen.jpg",
        "wikipedia": "de:Dr. Lubos Kliniken Bogenhausen"
      }
    },
    {
      "type": "Feature",
      "geometry": {
        "type": "Point",
        "coordinates": [
          11.581378,
          48.1455229
        ]
      },
      "properties": {
        "id": 1423630775,
        "type": "way",
        "name": "Josephinum",
        "category": "hospitals",
        "amenity": "hospital",
        "beds": "70",
        "email": "info@josephinum.de",
        "healthcare": "hospital",
        "healthcare:speciality": "surgery;orthopaedics;internal;otolaryngology;anaesthetics",
        "opening_hours:visitors": "14:00-18:00",
        "operator": "Klinik Josephinum gemeinnützige AG",
        "operator:type": "private_non_profit",
        "phone": "+49 89 23688-0",
        "website": "https://www.josephinum.de",
        "wikidata": "Q18018035"
      }
    },
    {
      "type": "Feature",
      "geometry": {
        "type": "Point",
        "coordinates": [
          11.5928253,
          48.164227
        ]
      },
      "properties": {
        "id": 1428000359,
        "type": "way",
        "name": "Klinik und Poliklinik für Dermatologie und Allergologie am Biederstein, Technische Universität München",
        "category": "hospitals",
        "addr:city": "München",
        "addr:country": "DE",
        "addr:housenumber": "29",
        "addr:postcode": "80802",
        "addr:street": "Biedersteiner Straße",
        "amenity": "hospital",
        "healthcare": "hospital",
        "healthcare:speciality": "dermatology",
        "operator": "Klinikum der Technischen Universität München (TUM Klinikum)",
        "short_name": "Universitäts-Hautklinik",
        "website": "https://derma-allergie.med.tum.de/"
      }
    },
    {
      "type": "Feature",
      "geometry": {
        "type": "Point",
        "coordinates": [
          11.5503492,
          48.1485688
        ]
      },
      "properties": {
        "id": 1446522229,
        "type": "way",
        "name": "Augenklinik Herzog Carl Theodor",
        "category": "hospitals",
        "amenity": "hospital",
        "healthcare": "hospital",
        "healthcare:speciality": "ophthalmology",
        "name:en": "Eye Clinic Herzog Carl Theodor",
        "operator": "Stiftung Augenklinik Herzog Carl Theodor",
        "smoking": "no",
        "website": "https://www.augenklinik-muenchen.de/",
        "wheelchair": "yes",
        "wikidata": "Q510979"
      }
    },
    {
      "type": "Feature",
      "geometry": {
        "type": "Point",
        "coordinates": [
          11.5824233,
          48.2104103
        ]
      },
      "properties": {
        "id": 1546130,
        "type": "multipolygon",
        "name": "StOSanZentrum",
        "category": "hospitals",
        "amenity": "hospital",
        "building": "yes",
        "healthcare": "hospital"
      }
    },
    {
      "type": "Feature",
      "geometry": {
        "type": "Point",
        "coordinates": [
          11.4694572,
          48.1105025
        ]
      },
      "properties": {
        "id": 6172896,
        "type": "site",
        "name": "Klinikum der Universität München",
        "category": "hospitals",
        "amenity": "hospital",
        "wikidata": "Q55616095",
        "wikipedia": "en:LMU Klinikum"
      }
    },
    {
      "type": "Feature",
      "geometry": {
        "type": "Point",
        "coordinates": [
          11.539702,
          48.1039026
        ]
      },
      "properties": {
        "id": 19647706,
        "type": "multipolygon",
        "name": "Sana Klinik München",
        "category": "hospitals",
        "addr:city": "München",
        "addr:country": "DE",
        "addr:housenumber": "3",
        "addr:postcode": "81369",
        "addr:street": "Steinerstraße",
        "amenity": "hospital",
        "capacity": "200",
        "check_date": "2025-08-30",
        "email": "info-skm@sana.de",
        "emergency": "yes",
        "healthcare": "hospital",
        "healthcare:speciality": "surgery",
        "operator": "Sana Kliniken AG",
        "phone": "+49 89 72403-0",
        "website": "https://www.sana.de/muenchen",
        "wheelchair": "yes"
      }
    }
  ],
  "metadata": {
    "category": "hospitals",
    "count": 47,
    "generatedAt": "2025-11-22T19:55:36.154Z",
    "bbox": {
      "south": 48.061,
      "west": 11.36,
      "north": 48.248,
      "east": 11.723
    }
  }
}